DUPLEX                  
1 66906U 98067XS  26092.33418043  .00038286  00000+0  50880-3 0  9992
2 66906  51.6289 311.0495 0003139 222.9093 137.1654 15.57809360 18815
ISS OBJECT XT           
1 66907U 98067XT  26092.84146166  .00395588  00000+0  20759-2 0  9995
2 66907  51.6224 301.6406 0006925 238.4515 121.5810 15.79069790 18987
ISS OBJECT XU           
1 66908U 98067XU  26092.58367113  .00315777  00000+0  16662-2 0  9994
2 66908  51.6227 302.9152 0007080 236.5684 123.4640 15.79162212 18943
SILVERSAT               
1 66909U 98067XV  26092.58307897  .00490335  00000+0  18699-2 0  9994
2 66909  51.6187 301.3924 0008484 244.3474 115.6654 15.85656241 18969
ISS OBJECT XW           
1 66910U 98067XW  26092.85379717  .00332570  00000+0  19101-2 0  9991
2 66910  51.6203 301.7150 0007256 233.7499 126.2831 15.77220477 18986
ISS OBJECT XX           
1 66911U 98067XX  26092.56465564  .00782872  27243-3  20072-2 0  9991
2 66911  51.6164 299.7246 0010614 249.4592 110.5277 15.94599332 18972
ISS OBJECT XY           
1 66912U 98067XY  26092.57412265  .00137053  00000+0  11570-2 0  9999
2 66912  51.6258 305.8859 0004739 230.4496 129.6082 15.68819733 18897
KNACKSAT-2              
1 67683U 98067XZ  26092.02490752  .00046055  00000+0  70546-3 0  9992
2 67683  51.6312 315.7350 0010357 271.4198  88.5606 15.53816312  8413
CORAL                   
1 67684U 98067YA  26092.33001976  .00125323  00000+0  15847-2 0  9991
2 67684  51.6292 313.2725 0013294 262.6844  97.2637 15.58508636  8472
GXIBA-1                 
1 67685U 98067YB  26092.33482644  .00063698  00000+0  94793-3 0  9991
2 67685  51.6311 314.0552 0012289 269.6614  90.2969 15.54444471  8469
UITMSAT-2               
1 67686U 98067YC  26092.63851904  .00069503  00000+0  99291-3 0  9993
2 67686  51.6305 312.3353 0009377 244.7057 115.2963 15.55557558  8512
HMU-SAT2                
1 67687U 98067YD  26092.01899921  .00048045  00000+0  72719-3 0  9991
2 67687  51.6316 315.6984 0008907 244.0786 115.9287 15.54142799  8333
LEOPARD                 
1 67688U 98067YE  26092.32529035  .00072153  00000+0  10507-2 0  9995
2 67688  51.6308 313.9945 0009067 243.2644 116.7419 15.55023606  8382
CREW DRAGON 12          
1 67796U 26031A   26092.84326289  .00011825  00000+0  22447-3 0  9996
2 67796  51.6328 312.9475 0006236 264.7845  95.2432 15.48729122560047
PROGRESS-MS 33          
1 68319U 26058A   26092.84326289  .00011825  00000+0  22447-3 0  9997
2 68319  51.6328 312.9475 0006236 264.7845  95.2432 15.48729122  1555
